<?xml version="1.0" encoding="UTF-8"?>
<ndm xmlns:xsi="http://www.w3.org/2001/XMLSchema-instance" xsi:noNamespaceSchemaLocation="https://sanaregistry.org/r/ndmxml_unqualified/ndmxml-2.0.0-master-2.0.xsd">
<omm id="CCSDS_OMM_VERS" version="2.0">
<header><CREATION_DATE/><ORIGINATOR/></header><body><segment><metadata><OBJECT_NAME>ORBCOMM FM103 [+]</OBJECT_NAME><OBJECT_ID>2014-040F</OBJECT_ID><CENTER_NAME>EARTH</CENTER_NAME><REF_FRAME>TEME</REF_FRAME><TIME_SYSTEM>UTC</TIME_SYSTEM><MEAN_ELEMENT_THEORY>SGP4</MEAN_ELEMENT_THEORY></metadata><data><meanElements><EPOCH>2024-01-18T03:55:49.925856</EPOCH><MEAN_MOTION>14.56221542</MEAN_MOTION><ECCENTRICITY>.0001551</ECCENTRICITY><INCLINATION>47.0066</INCLINATION><RA_OF_ASC_NODE>290.9655</RA_OF_ASC_NODE><ARG_OF_PERICENTER>59.1954</ARG_OF_PERICENTER><MEAN_ANOMALY>300.9084</MEAN_ANOMALY></meanElements><tleParameters><EPHEMERIS_TYPE>0</EPHEMERIS_TYPE><CLASSIFICATION_TYPE>U</CLASSIFICATION_TYPE><NORAD_CAT_ID>40091</NORAD_CAT_ID><ELEMENT_SET_NO>999</ELEMENT_SET_NO><REV_AT_EPOCH>50590</REV_AT_EPOCH><BSTAR>.34171E-3</BSTAR><MEAN_MOTION_DOT>.1358E-4</MEAN_MOTION_DOT><MEAN_MOTION_DDOT>0</MEAN_MOTION_DDOT></tleParameters></data></segment></body></omm>
<omm id="CCSDS_OMM_VERS" version="2.0">
<header><CREATION_DATE/><ORIGINATOR/></header><body><segment><metadata><OBJECT_NAME>ORBCOMM FM114 [+]</OBJECT_NAME><OBJECT_ID>2015-081A</OBJECT_ID><CENTER_NAME>EARTH</CENTER_NAME><REF_FRAME>TEME</REF_FRAME><TIME_SYSTEM>UTC</TIME_SYSTEM><MEAN_ELEMENT_THEORY>SGP4</MEAN_ELEMENT_THEORY></metadata><data><meanElements><EPOCH>2024-01-17T08:59:47.054688</EPOCH><MEAN_MOTION>14.56214242</MEAN_MOTION><ECCENTRICITY>.0001587</ECCENTRICITY><INCLINATION>47.0010</INCLINATION><RA_OF_ASC_NODE>203.9991</RA_OF_ASC_NODE><ARG_OF_PERICENTER>153.5051</ARG_OF_PERICENTER><MEAN_ANOMALY>206.5915</MEAN_ANOMALY></meanElements><tleParameters><EPHEMERIS_TYPE>0</EPHEMERIS_TYPE><CLASSIFICATION_TYPE>U</CLASSIFICATION_TYPE><NORAD_CAT_ID>41179</NORAD_CAT_ID><ELEMENT_SET_NO>999</ELEMENT_SET_NO><REV_AT_EPOCH>42909</REV_AT_EPOCH><BSTAR>.42362E-3</BSTAR><MEAN_MOTION_DOT>.1724E-4</MEAN_MOTION_DOT><MEAN_MOTION_DDOT>0</MEAN_MOTION_DDOT></tleParameters></data></segment></body></omm>
<omm id="CCSDS_OMM_VERS" version="2.0">
<header><CREATION_DATE/><ORIGINATOR/></header><body><segment><metadata><OBJECT_NAME>ORBCOMM FM119 [-]</OBJECT_NAME><OBJECT_ID>2015-081B</OBJECT_ID><CENTER_NAME>EARTH</CENTER_NAME><REF_FRAME>TEME</REF_FRAME><TIME_SYSTEM>UTC</TIME_SYSTEM><MEAN_ELEMENT_THEORY>SGP4</MEAN_ELEMENT_THEORY></metadata><data><meanElements><EPOCH>2024-01-18T08:56:29.685984</EPOCH><MEAN_MOTION>14.56212722</MEAN_MOTION><ECCENTRICITY>.0002111</ECCENTRICITY><INCLINATION>47.0012</INCLINATION><RA_OF_ASC_NODE>108.4923</RA_OF_ASC_NODE><ARG_OF_PERICENTER>230.5220</ARG_OF_PERICENTER><MEAN_ANOMALY>129.5478</MEAN_ANOMALY></meanElements><tleParameters><EPHEMERIS_TYPE>0</EPHEMERIS_TYPE><CLASSIFICATION_TYPE>U</CLASSIFICATION_TYPE><NORAD_CAT_ID>41180</NORAD_CAT_ID><ELEMENT_SET_NO>999</ELEMENT_SET_NO><REV_AT_EPOCH>43049</REV_AT_EPOCH><BSTAR>.40283E-3</BSTAR><MEAN_MOTION_DOT>.1631E-4</MEAN_MOTION_DOT><MEAN_MOTION_DDOT>0</MEAN_MOTION_DDOT></tleParameters></data></segment></body></omm>
<omm id="CCSDS_OMM_VERS" version="2.0">
<header><CREATION_DATE/><ORIGINATOR/></header><body><segment><metadata><OBJECT_NAME>ORBCOMM FM105 [-]</OBJECT_NAME><OBJECT_ID>2015-081C</OBJECT_ID><CENTER_NAME>EARTH</CENTER_NAME><REF_FRAME>TEME</REF_FRAME><TIME_SYSTEM>UTC</TIME_SYSTEM><MEAN_ELEMENT_THEORY>SGP4</MEAN_ELEMENT_THEORY></metadata><data><meanElements><EPOCH>2024-01-18T02:11:02.804352</EPOCH><MEAN_MOTION>14.44188511</MEAN_MOTION><ECCENTRICITY>.000193</ECCENTRICITY><INCLINATION>47.0023</INCLINATION><RA_OF_ASC_NODE>66.4359</RA_OF_ASC_NODE><ARG_OF_PERICENTER>198.1719</ARG_OF_PERICENTER><MEAN_ANOMALY>161.9092</MEAN_ANOMALY></meanElements><tleParameters><EPHEMERIS_TYPE>0</EPHEMERIS_TYPE><CLASSIFICATION_TYPE>U</CLASSIFICATION_TYPE><NORAD_CAT_ID>41181</NORAD_CAT_ID><ELEMENT_SET_NO>999</ELEMENT_SET_NO><REV_AT_EPOCH>42623</REV_AT_EPOCH><BSTAR>.2513E-3</BSTAR><MEAN_MOTION_DOT>.713E-5</MEAN_MOTION_DOT><MEAN_MOTION_DDOT>0</MEAN_MOTION_DDOT></tleParameters></data></segment></body></omm>
<omm id="CCSDS_OMM_VERS" version="2.0">
<header><CREATION_DATE/><ORIGINATOR/></header><body><segment><metadata><OBJECT_NAME>ORBCOMM FM110 [+]</OBJECT_NAME><OBJECT_ID>2015-081D</OBJECT_ID><CENTER_NAME>EARTH</CENTER_NAME><REF_FRAME>TEME</REF_FRAME><TIME_SYSTEM>UTC</TIME_SYSTEM><MEAN_ELEMENT_THEORY>SGP4</MEAN_ELEMENT_THEORY></metadata><data><meanElements><EPOCH>2024-01-17T15:01:47.384832</EPOCH><MEAN_MOTION>14.56208232</MEAN_MOTION><ECCENTRICITY>.0001834</ECCENTRICITY><INCLINATION>46.9999</INCLINATION><RA_OF_ASC_NODE>202.2317</RA_OF_ASC_NODE><ARG_OF_PERICENTER>304.7756</ARG_OF_PERICENTER><MEAN_ANOMALY>55.2955</MEAN_ANOMALY></meanElements><tleParameters><EPHEMERIS_TYPE>0</EPHEMERIS_TYPE><CLASSIFICATION_TYPE>U</CLASSIFICATION_TYPE><NORAD_CAT_ID>41182</NORAD_CAT_ID><ELEMENT_SET_NO>999</ELEMENT_SET_NO><REV_AT_EPOCH>42900</REV_AT_EPOCH><BSTAR>.40619E-3</BSTAR><MEAN_MOTION_DOT>.1646E-4</MEAN_MOTION_DOT><MEAN_MOTION_DDOT>0</MEAN_MOTION_DDOT></tleParameters></data></segment></body></omm>
<omm id="CCSDS_OMM_VERS" version="2.0">
<header><CREATION_DATE/><ORIGINATOR/></header><body><segment><metadata><OBJECT_NAME>ORBCOMM FM118 [+]</OBJECT_NAME><OBJECT_ID>2015-081E</OBJECT_ID><CENTER_NAME>EARTH</CENTER_NAME><REF_FRAME>TEME</REF_FRAME><TIME_SYSTEM>UTC</TIME_SYSTEM><MEAN_ELEMENT_THEORY>SGP4</MEAN_ELEMENT_THEORY></metadata><data><meanElements><EPOCH>2024-01-17T14:29:01.880736</EPOCH><MEAN_MOTION>14.56207331</MEAN_MOTION><ECCENTRICITY>.0002117</ECCENTRICITY><INCLINATION>47.0026</INCLINATION><RA_OF_ASC_NODE>202.6213</RA_OF_ASC_NODE><ARG_OF_PERICENTER>305.0616</ARG_OF_PERICENTER><MEAN_ANOMALY>55.0069</MEAN_ANOMALY></meanElements><tleParameters><EPHEMERIS_TYPE>0</EPHEMERIS_TYPE><CLASSIFICATION_TYPE>U</CLASSIFICATION_TYPE><NORAD_CAT_ID>41183</NORAD_CAT_ID><ELEMENT_SET_NO>999</ELEMENT_SET_NO><REV_AT_EPOCH>42910</REV_AT_EPOCH><BSTAR>.33054E-3</BSTAR><MEAN_MOTION_DOT>.1308E-4</MEAN_MOTION_DOT><MEAN_MOTION_DDOT>0</MEAN_MOTION_DDOT></tleParameters></data></segment></body></omm>
<omm id="CCSDS_OMM_VERS" version="2.0">
<header><CREATION_DATE/><ORIGINATOR/></header><body><segment><metadata><OBJECT_NAME>ORBCOMM FM112 [+]</OBJECT_NAME><OBJECT_ID>2015-081F</OBJECT_ID><CENTER_NAME>EARTH</CENTER_NAME><REF_FRAME>TEME</REF_FRAME><TIME_SYSTEM>UTC</TIME_SYSTEM><MEAN_ELEMENT_THEORY>SGP4</MEAN_ELEMENT_THEORY></metadata><data><meanElements><EPOCH>2024-01-18T08:24:57.437856</EPOCH><MEAN_MOTION>14.56203924</MEAN_MOTION><ECCENTRICITY>.0001908</ECCENTRICITY><INCLINATION>46.9981</INCLINATION><RA_OF_ASC_NODE>107.8377</RA_OF_ASC_NODE><ARG_OF_PERICENTER>219.3765</ARG_OF_PERICENTER><MEAN_ANOMALY>140.6981</MEAN_ANOMALY></meanElements><tleParameters><EPHEMERIS_TYPE>0</EPHEMERIS_TYPE><CLASSIFICATION_TYPE>U</CLASSIFICATION_TYPE><NORAD_CAT_ID>41184</NORAD_CAT_ID><ELEMENT_SET_NO>999</ELEMENT_SET_NO><REV_AT_EPOCH>43048</REV_AT_EPOCH><BSTAR>.49226E-3</BSTAR><MEAN_MOTION_DOT>.203E-4</MEAN_MOTION_DOT><MEAN_MOTION_DDOT>0</MEAN_MOTION_DDOT></tleParameters></data></segment></body></omm>
<omm id="CCSDS_OMM_VERS" version="2.0">
<header><CREATION_DATE/><ORIGINATOR/></header><body><segment><metadata><OBJECT_NAME>ORBCOMM FM113 [+]</OBJECT_NAME><OBJECT_ID>2015-081G</OBJECT_ID><CENTER_NAME>EARTH</CENTER_NAME><REF_FRAME>TEME</REF_FRAME><TIME_SYSTEM>UTC</TIME_SYSTEM><MEAN_ELEMENT_THEORY>SGP4</MEAN_ELEMENT_THEORY></metadata><data><meanElements><EPOCH>2024-01-18T07:51:27.785088</EPOCH><MEAN_MOTION>14.56199598</MEAN_MOTION><ECCENTRICITY>.0001749</ECCENTRICITY><INCLINATION>47.0001</INCLINATION><RA_OF_ASC_NODE>108.1912</RA_OF_ASC_NODE><ARG_OF_PERICENTER>239.2943</ARG_OF_PERICENTER><MEAN_ANOMALY>120.7769</MEAN_ANOMALY></meanElements><tleParameters><EPHEMERIS_TYPE>0</EPHEMERIS_TYPE><CLASSIFICATION_TYPE>U</CLASSIFICATION_TYPE><NORAD_CAT_ID>41185</NORAD_CAT_ID><ELEMENT_SET_NO>999</ELEMENT_SET_NO><REV_AT_EPOCH>43048</REV_AT_EPOCH><BSTAR>.47274E-3</BSTAR><MEAN_MOTION_DOT>.1942E-4</MEAN_MOTION_DOT><MEAN_MOTION_DDOT>0</MEAN_MOTION_DDOT></tleParameters></data></segment></body></omm>

</ndm>
