ORBCOMM FM103 [+]       
1 40091U 14040F   24018.16377229  .00001358  00000+0  34171-3 0  9990
2 40091  47.0066 290.9655 0001551  59.1954 300.9084 14.56221542505905
ORBCOMM FM114 [+]       
1 41179U 15081A   24017.37485017  .00001724  00000+0  42362-3 0  9999
2 41179  47.0010 203.9991 0001587 153.5051 206.5915 14.56214242429093
ORBCOMM FM119 [-]       
1 41180U 15081B   24018.37256581  .00001631  00000+0  40283-3 0  9991
2 41180  47.0012 108.4923 0002111 230.5220 129.5478 14.56212722430494
ORBCOMM FM105 [-]       
1 41181U 15081C   24018.09100468  .00000713  00000+0  25130-3 0  9997
2 41181  47.0023  66.4359 0001930 198.1719 161.9092 14.44188511426237
ORBCOMM FM110 [+]       
1 41182U 15081D   24017.62624288  .00001646  00000+0  40619-3 0  9992
2 41182  46.9999 202.2317 0001834 304.7756  55.2955 14.56208232429008
ORBCOMM FM118 [+]       
1 41183U 15081E   24017.60349399  .00001308  00000+0  33054-3 0  9998
2 41183  47.0026 202.6213 0002117 305.0616  55.0069 14.56207331429109
ORBCOMM FM112 [+]       
1 41184U 15081F   24018.35066479  .00002030  00000+0  49226-3 0  9998
2 41184  46.9981 107.8377 0001908 219.3765 140.6981 14.56203924430485
ORBCOMM FM113 [+]       
1 41185U 15081G   24018.32740492  .00001942  00000+0  47274-3 0  9992
2 41185  47.0001 108.1912 0001749 239.2943 120.7769 14.56199598430486
